{
    "links": {
        "self": "http://www.neowsapp.com/rest/v1/neo/3752799?api_key=iIulBulltgU6a56xZRHN4H3l9WmuAYTsLGpBGhQ2"
    },
    "id": "3752799",
    "neo_reference_id": "3752799",
    "name": "(2016 JK6)",
    "designation": "2016 JK6",
    "nasa_jpl_url": "http://ssd.jpl.nasa.gov/sbdb.cgi?sstr=3752799",
    "absolute_magnitude_h": 24.8,
    "estimated_diameter": {
        "kilometers": {
            "estimated_diameter_min": 0.0291443905,
            "estimated_diameter_max": 0.0651688382
        },
        "meters": {
            "estimated_diameter_min": 29.1443904535,
            "estimated_diameter_max": 65.1688382168
        },
        "miles": {
            "estimated_diameter_min": 0.018109479,
            "estimated_diameter_max": 0.0404940262
        },
        "feet": {
            "estimated_diameter_min": 95.6180819754,
            "estimated_diameter_max": 213.8085311752
        }
    },
    "is_potentially_hazardous_asteroid": false,
    "close_approach_data": [
        {
            "close_approach_date": "2016-04-05",
            "close_approach_date_full": "2016-Apr-05 07:16",
            "epoch_date_close_approach": 1459840560000,
            "relative_velocity": {
                "kilometers_per_second": "5.8786511432",
                "kilometers_per_hour": "21163.1441156633",
                "miles_per_hour": "13149.9547423131"
            },
            "miss_distance": {
                "astronomical": "0.0900010484",
                "lunar": "35.0104078276",
                "kilometers": "13463965.138406908",
                "miles": "8366119.9948670104"
            },
            "orbiting_body": "Earth"
        },
        {
            "close_approach_date": "2016-06-30",
            "close_approach_date_full": "2016-Jun-30 02:14",
            "epoch_date_close_approach": 1467252840000,
            "relative_velocity": {
                "kilometers_per_second": "11.8226962848",
                "kilometers_per_hour": "42561.7066253318",
                "miles_per_hour": "26446.1893195013"
            },
            "miss_distance": {
                "astronomical": "0.0583720841",
                "lunar": "22.7067407149",
                "kilometers": "8732339.448820867",
                "miles": "5426024.1254152846"
            },
            "orbiting_body": "Mars"
        }
    ],
    "orbital_data": {
        "orbit_id": "3",
        "orbit_determination_date": "2017-04-06 08:26:07",
        "first_observation_date": "2016-05-01",
        "last_observation_date": "2016-05-06",
        "data_arc_in_days": 5,
        "observations_used": 9,
        "orbit_uncertainty": "9",
        "minimum_orbit_intersection": ".089208",
        "jupiter_tisserand_invariant": "3.915",
        "epoch_osculation": "2457510.5",
        "eccentricity": ".4288381238710109",
        "semi_major_axis": "1.826216958196338",
        "inclination": "5.174342672566862",
        "ascending_node_longitude": "61.19971812293757",
        "orbital_period": "901.4195728553915",
        "perihelion_distance": "1.043065504061996",
        "perihelion_argument": "115.329751154373",
        "aphelion_distance": "2.609368412330679",
        "perihelion_time": "2457466.999135316955",
        "mean_anomaly": "17.3729434743575",
        "mean_motion": ".3993700723178687",
        "equinox": "J2000",
        "orbit_class": {
            "orbit_class_type": "AMO",
            "orbit_class_description": "Near-Earth asteroid orbits similar to that of 1221 Amor",
            "orbit_class_range": "1.017 AU < q (perihelion) < 1.3 AU"
        }
    },
    "is_sentry_object": false
}